AQUA                    
1 27424U 02022A   26086.96088537  .00000976  00000+0  20435-3 0  9991
2 27424  98.4204  54.6629 0001093 117.9753 318.1582 14.62017319271402
CZ-4B R/B               
1 27432U 02024C   26086.91935200  .00000035  00000+0  41057-4 0  9995
2 27432  98.8800 140.2311 0049546 332.3355 200.2341 14.14550790231810
MIDORI II (ADEOS-II)    
1 27597U 02056A   26086.79484052  .00000294  00000+0  13331-3 0  9992
2 27597  98.7799  45.4011 0000798  21.3866 338.7349 14.29298226212889
H-2A R/B                
1 27601U 02056E   26086.92312532  .00000298  00000+0  11861-3 0  9996
2 27601  98.3233  46.5980 0071338 106.9410 321.8294 14.33772504216724
CZ-4B R/B               
1 28059U 03049C   26086.74446325  .00000324  00000+0  85736-4 0  9998
2 28059  98.6892  82.3599 0048215 175.2412 184.9252 14.55035729189220
CZ-2C R/B               
1 28222U 04012C   26086.76121368  .00057286  00000+0  54228-3 0  9990
2 28222  97.7185 153.7924 0013222 237.0962 122.9026 15.66684304207100
SL-16 R/B               
1 28353U 04021B   26086.70088670  .00000146  00000+0  10070-3 0  9997
2 28353  71.0007 194.6950 0004911 347.8061  12.2942 14.14594347125387
CZ-4B R/B               
1 28415U 04035C   26086.83836562  .00008079  00000+0  28250-3 0  9998
2 28415  97.3475 120.8646 0029983 263.6360  96.1466 15.29370387182683
CZ-2C R/B               
1 28480U 04046B   26086.78646459  .00000115  00000+0  57408-4 0  9991
2 28480  98.1976   0.6430 0140582 101.2630 260.4388 14.26998277111087
ARIANE 5 R/B            
1 28499U 04049H   26086.88928018  .00000798  00000+0  94625-4 0  9998
2 28499  98.2655 256.0312 0082936 292.4231  66.8213 14.85297612148496
CZ-2D R/B               
1 28738U 05024B   26086.78710166  .00044619  00000+0  51546-3 0  9994
2 28738  97.3587 102.6185 0002607 344.2824  15.8352 15.61774473142606
ALOS (DAICHI)           
1 28931U 06002A   26086.88333078  .00001365  00000+0  23661-3 0  9998
2 28931  98.1246  42.7516 0000835 105.5030 254.6268 14.69863972 76157
