CCSDS_OMM_VERS = 2.0
CREATION_DATE  = 
ORIGINATOR     = 

OBJECT_NAME    = AQUA
OBJECT_ID      = 2002-022A
CENTER_NAME    = EARTH
REF_FRAME      = TEME
TIME_SYSTEM    = UTC
MEAN_ELEMENT_THEORY = SGP/SGP4

EPOCH          = 2026-03-27T23:03:40.495968
MEAN_MOTION    = 14.62017319
ECCENTRICITY   = .00010931
INCLINATION    = 98.4204
RA_OF_ASC_NODE = 54.6629
ARG_OF_PERICENTER = 117.9753
MEAN_ANOMALY   = 318.1582

EPHEMERIS_TYPE = 0
CLASSIFICATION_TYPE = U
NORAD_CAT_ID   = 27424
ELEMENT_SET_NO = 999
REV_AT_EPOCH   = 27140
BSTAR          = .2043457E-3
MEAN_MOTION_DOT = .976E-5
MEAN_MOTION_DDOT = 0

CCSDS_OMM_VERS = 2.0
CREATION_DATE  = 
ORIGINATOR     = 

OBJECT_NAME    = CZ-4B R/B
OBJECT_ID      = 2002-024C
CENTER_NAME    = EARTH
REF_FRAME      = TEME
TIME_SYSTEM    = UTC
MEAN_ELEMENT_THEORY = SGP/SGP4

EPOCH          = 2026-03-27T22:03:52.012800
MEAN_MOTION    = 14.14550790
ECCENTRICITY   = .00495464
INCLINATION    = 98.8800
RA_OF_ASC_NODE = 140.2311
ARG_OF_PERICENTER = 332.3355
MEAN_ANOMALY   = 200.2341

EPHEMERIS_TYPE = 0
CLASSIFICATION_TYPE = U
NORAD_CAT_ID   = 27432
ELEMENT_SET_NO = 999
REV_AT_EPOCH   = 23181
BSTAR          = .41056514E-4
MEAN_MOTION_DOT = .35E-6
MEAN_MOTION_DDOT = 0

CCSDS_OMM_VERS = 2.0
CREATION_DATE  = 
ORIGINATOR     = 

OBJECT_NAME    = MIDORI II (ADEOS-II)
OBJECT_ID      = 2002-056A
CENTER_NAME    = EARTH
REF_FRAME      = TEME
TIME_SYSTEM    = UTC
MEAN_ELEMENT_THEORY = SGP/SGP4

EPOCH          = 2026-03-27T19:04:34.220928
MEAN_MOTION    = 14.29298226
ECCENTRICITY   = .00007987
INCLINATION    = 98.7799
RA_OF_ASC_NODE = 45.4011
ARG_OF_PERICENTER = 21.3866
MEAN_ANOMALY   = 338.7349

EPHEMERIS_TYPE = 0
CLASSIFICATION_TYPE = U
NORAD_CAT_ID   = 27597
ELEMENT_SET_NO = 999
REV_AT_EPOCH   = 21288
BSTAR          = .13331022E-3
MEAN_MOTION_DOT = .294E-5
MEAN_MOTION_DDOT = 0

CCSDS_OMM_VERS = 2.0
CREATION_DATE  = 
ORIGINATOR     = 

OBJECT_NAME    = H-2A R/B
OBJECT_ID      = 2002-056E
CENTER_NAME    = EARTH
REF_FRAME      = TEME
TIME_SYSTEM    = UTC
MEAN_ELEMENT_THEORY = SGP/SGP4

EPOCH          = 2026-03-27T22:09:18.027648
MEAN_MOTION    = 14.33772504
ECCENTRICITY   = .00713388
INCLINATION    = 98.3233
RA_OF_ASC_NODE = 46.5980
ARG_OF_PERICENTER = 106.9410
MEAN_ANOMALY   = 321.8294

EPHEMERIS_TYPE = 0
CLASSIFICATION_TYPE = U
NORAD_CAT_ID   = 27601
ELEMENT_SET_NO = 999
REV_AT_EPOCH   = 21672
BSTAR          = .11860523E-3
MEAN_MOTION_DOT = .298E-5
MEAN_MOTION_DDOT = 0

CCSDS_OMM_VERS = 2.0
CREATION_DATE  = 
ORIGINATOR     = 

OBJECT_NAME    = CZ-4B R/B
OBJECT_ID      = 2003-049C
CENTER_NAME    = EARTH
REF_FRAME      = TEME
TIME_SYSTEM    = UTC
MEAN_ELEMENT_THEORY = SGP/SGP4

EPOCH          = 2026-03-27T17:52:01.624800
MEAN_MOTION    = 14.55035729
ECCENTRICITY   = .00482156
INCLINATION    = 98.6892
RA_OF_ASC_NODE = 82.3599
ARG_OF_PERICENTER = 175.2412
MEAN_ANOMALY   = 184.9252

EPHEMERIS_TYPE = 0
CLASSIFICATION_TYPE = U
NORAD_CAT_ID   = 28059
ELEMENT_SET_NO = 999
REV_AT_EPOCH   = 18922
BSTAR          = .85735968E-4
MEAN_MOTION_DOT = .324E-5
MEAN_MOTION_DDOT = 0

CCSDS_OMM_VERS = 2.0
CREATION_DATE  = 
ORIGINATOR     = 

OBJECT_NAME    = CZ-2C R/B
OBJECT_ID      = 2004-012C
CENTER_NAME    = EARTH
REF_FRAME      = TEME
TIME_SYSTEM    = UTC
MEAN_ELEMENT_THEORY = SGP/SGP4

EPOCH          = 2026-03-27T18:16:08.861952
MEAN_MOTION    = 15.66684304
ECCENTRICITY   = .00132229
INCLINATION    = 97.7185
RA_OF_ASC_NODE = 153.7924
ARG_OF_PERICENTER = 237.0962
MEAN_ANOMALY   = 122.9026

EPHEMERIS_TYPE = 0
CLASSIFICATION_TYPE = U
NORAD_CAT_ID   = 28222
ELEMENT_SET_NO = 999
REV_AT_EPOCH   = 20710
BSTAR          = .54228232E-3
MEAN_MOTION_DOT = .57286E-3
MEAN_MOTION_DDOT = 0

CCSDS_OMM_VERS = 2.0
CREATION_DATE  = 
ORIGINATOR     = 

OBJECT_NAME    = SL-16 R/B
OBJECT_ID      = 2004-021B
CENTER_NAME    = EARTH
REF_FRAME      = TEME
TIME_SYSTEM    = UTC
MEAN_ELEMENT_THEORY = SGP/SGP4

EPOCH          = 2026-03-27T16:49:16.610880
MEAN_MOTION    = 14.14594347
ECCENTRICITY   = .00049117
INCLINATION    = 71.0007
RA_OF_ASC_NODE = 194.6950
ARG_OF_PERICENTER = 347.8061
MEAN_ANOMALY   = 12.2942

EPHEMERIS_TYPE = 0
CLASSIFICATION_TYPE = U
NORAD_CAT_ID   = 28353
ELEMENT_SET_NO = 999
REV_AT_EPOCH   = 12538
BSTAR          = .10070396E-3
MEAN_MOTION_DOT = .146E-5
MEAN_MOTION_DDOT = 0

CCSDS_OMM_VERS = 2.0
CREATION_DATE  = 
ORIGINATOR     = 

OBJECT_NAME    = CZ-4B R/B
OBJECT_ID      = 2004-035C
CENTER_NAME    = EARTH
REF_FRAME      = TEME
TIME_SYSTEM    = UTC
MEAN_ELEMENT_THEORY = SGP/SGP4

EPOCH          = 2026-03-27T20:07:14.789568
MEAN_MOTION    = 15.29370387
ECCENTRICITY   = .00299836
INCLINATION    = 97.3475
RA_OF_ASC_NODE = 120.8646
ARG_OF_PERICENTER = 263.6360
MEAN_ANOMALY   = 96.1466

EPHEMERIS_TYPE = 0
CLASSIFICATION_TYPE = U
NORAD_CAT_ID   = 28415
ELEMENT_SET_NO = 999
REV_AT_EPOCH   = 18268
BSTAR          = .28250277E-3
MEAN_MOTION_DOT = .8079E-4
MEAN_MOTION_DDOT = 0

CCSDS_OMM_VERS = 2.0
CREATION_DATE  = 
ORIGINATOR     = 

OBJECT_NAME    = CZ-2C R/B
OBJECT_ID      = 2004-046B
CENTER_NAME    = EARTH
REF_FRAME      = TEME
TIME_SYSTEM    = UTC
MEAN_ELEMENT_THEORY = SGP/SGP4

EPOCH          = 2026-03-27T18:52:30.540576
MEAN_MOTION    = 14.26998277
ECCENTRICITY   = .01405821
INCLINATION    = 98.1976
RA_OF_ASC_NODE = 0.6430
ARG_OF_PERICENTER = 101.2630
MEAN_ANOMALY   = 260.4388

EPHEMERIS_TYPE = 0
CLASSIFICATION_TYPE = U
NORAD_CAT_ID   = 28480
ELEMENT_SET_NO = 999
REV_AT_EPOCH   = 11108
BSTAR          = .57407743E-4
MEAN_MOTION_DOT = .115E-5
MEAN_MOTION_DDOT = 0

CCSDS_OMM_VERS = 2.0
CREATION_DATE  = 
ORIGINATOR     = 

OBJECT_NAME    = ARIANE 5 R/B
OBJECT_ID      = 2004-049H
CENTER_NAME    = EARTH
REF_FRAME      = TEME
TIME_SYSTEM    = UTC
MEAN_ELEMENT_THEORY = SGP/SGP4

EPOCH          = 2026-03-27T21:20:33.807552
MEAN_MOTION    = 14.85297612
ECCENTRICITY   = .00829363
INCLINATION    = 98.2655
RA_OF_ASC_NODE = 256.0312
ARG_OF_PERICENTER = 292.4231
MEAN_ANOMALY   = 66.8213

EPHEMERIS_TYPE = 0
CLASSIFICATION_TYPE = U
NORAD_CAT_ID   = 28499
ELEMENT_SET_NO = 999
REV_AT_EPOCH   = 14849
BSTAR          = .94624631E-4
MEAN_MOTION_DOT = .798E-5
MEAN_MOTION_DDOT = 0

CCSDS_OMM_VERS = 2.0
CREATION_DATE  = 
ORIGINATOR     = 

OBJECT_NAME    = CZ-2D R/B
OBJECT_ID      = 2005-024B
CENTER_NAME    = EARTH
REF_FRAME      = TEME
TIME_SYSTEM    = UTC
MEAN_ELEMENT_THEORY = SGP/SGP4

EPOCH          = 2026-03-27T18:53:25.583424
MEAN_MOTION    = 15.61774473
ECCENTRICITY   = .00026071
INCLINATION    = 97.3587
RA_OF_ASC_NODE = 102.6185
ARG_OF_PERICENTER = 344.2824
MEAN_ANOMALY   = 15.8352

EPHEMERIS_TYPE = 0
CLASSIFICATION_TYPE = U
NORAD_CAT_ID   = 28738
ELEMENT_SET_NO = 999
REV_AT_EPOCH   = 14260
BSTAR          = .51546225E-3
MEAN_MOTION_DOT = .44619E-3
MEAN_MOTION_DDOT = 0

CCSDS_OMM_VERS = 2.0
CREATION_DATE  = 
ORIGINATOR     = 

OBJECT_NAME    = ALOS (DAICHI)
OBJECT_ID      = 2006-002A
CENTER_NAME    = EARTH
REF_FRAME      = TEME
TIME_SYSTEM    = UTC
MEAN_ELEMENT_THEORY = SGP/SGP4

EPOCH          = 2026-03-27T21:11:59.779392
MEAN_MOTION    = 14.69863972
ECCENTRICITY   = .00008353
INCLINATION    = 98.1246
RA_OF_ASC_NODE = 42.7516
ARG_OF_PERICENTER = 105.5030
MEAN_ANOMALY   = 254.6268

EPHEMERIS_TYPE = 0
CLASSIFICATION_TYPE = U
NORAD_CAT_ID   = 28931
ELEMENT_SET_NO = 999
REV_AT_EPOCH   = 7615
BSTAR          = .23661173E-3
MEAN_MOTION_DOT = .1365E-4
MEAN_MOTION_DDOT = 0

